{"type": "FeatureCollection", "features": [ {"type": "Feature", "properties": {"norad_id": 36743, "name": "FENGYUN 1C DEB", "group": "fengyun-1c-debris", "lat": -18.89445884819145, "lon": -157.90608727986898, "alt_km": 831.566309383652, "timestamp": "2025-12-02T17:49:12.316577+00:00", "meta": {"OBJECT_NAME": "FENGYUN 1C DEB", "OBJECT_ID": "1999-025EBR", "EPOCH": "2025-12-02T08:29:31.864992", "MEAN_MOTION": 14.2899004, "ECCENTRICITY": 0.0047921, "INCLINATION": 98.6575, "RA_OF_ASC_NODE": 24.6973, "ARG_OF_PERICENTER": 43.9124, "MEAN_ANOMALY": 316.585, "EPHEMERIS_TYPE": 0, "CLASSIFICATION_TYPE": "U", "NORAD_CAT_ID": 36743, "ELEMENT_SET_NO": 999, "REV_AT_EPOCH": 60589, "BSTAR": 0.001564, "MEAN_MOTION_DOT": 3.963e-05, "MEAN_MOTION_DDOT": 0}, "tle": {"line1": "1 36743U 99025EBR 25336.35384103  .00003963  00000+0  15640-2 0  9992", "line2": "2 36743  98.6575  24.6973 0047921  43.9124 316.5850 14.28990040605895"}}, "geometry": {"type": "Point", "coordinates": [-157.90608727986898, -18.89445884819145]}}, {"type": "Feature", "properties": {"norad_id": 36986, "name": "FENGYUN 1C DEB", "group": "fengyun-1c-debris", "lat": -40.67053845509913, "lon": 50.450537260969185, "alt_km": 810.0872686306584, "timestamp": "2025-12-02T17:49:12.316588+00:00", "meta": {"OBJECT_NAME": "FENGYUN 1C DEB", "OBJECT_ID": "1999-025EBS", "EPOCH": "2025-11-23T16:41:57.060384", "MEAN_MOTION": 14.14366632, "ECCENTRICITY": 0.00851125, "INCLINATION": 99.1414, "RA_OF_ASC_NODE": 33.2424, "ARG_OF_PERICENTER": 295.2999, "MEAN_ANOMALY": 63.9373, "EPHEMERIS_TYPE": 0, "CLASSIFICATION_TYPE": "U", "NORAD_CAT_ID": 36986, "ELEMENT_SET_NO": 999, "REV_AT_EPOCH": 81475, "BSTAR": 0.0017459823, "MEAN_MOTION_DOT": 3.412e-05, "MEAN_MOTION_DDOT": 0}, "tle": {"line1": "1 36986U 99025EBS 25327.69579931  .00003412  00000+0  17460-2 0  9994", "line2": "2 36986  99.1414  33.2424 0085112 295.2999  63.9373 14.14366632814754"}}, "geometry": {"type": "Point", "coordinates": [50.450537260969185, -40.67053845509913]}}, {"type": "Feature", "properties": {"norad_id": 36987, "name": "FENGYUN 1C DEB", "group": "fengyun-1c-debris", "lat": 4.895899586828314, "lon": 37.65857639277217, "alt_km": 1141.4422959799194, "timestamp": "2025-12-02T17:49:12.316598+00:00", "meta": {"OBJECT_NAME": "FENGYUN 1C DEB", "OBJECT_ID": "1999-025EBT", "EPOCH": "2025-11-28T09:30:32.513760", "MEAN_MOTION": 13.45837794, "ECCENTRICITY": 0.03190959, "INCLINATION": 100.8194, "RA_OF_ASC_NODE": 212.0317, "ARG_OF_PERICENTER": 80.8699, "MEAN_ANOMALY": 282.8381, "EPHEMERIS_TYPE": 0, "CLASSIFICATION_TYPE": "U", "NORAD_CAT_ID": 36987, "ELEMENT_SET_NO": 999, "REV_AT_EPOCH": 60684, "BSTAR": 0.0012826403, "MEAN_MOTION_DOT": 9.91e-06, "MEAN_MOTION_DDOT": 0}, "tle": {"line1": "1 36987U 99025EBT 25332.39620965  .00000991  00000+0  12826-2 0  9992", "line2": "2 36987 100.8194 212.0317 0319095  80.8699 282.8381 13.45837794606848"}}, "geometry": {"type": "Point", "coordinates": [37.65857639277217, 4.895899586828314]}}, {"type": "Feature", "properties": {"norad_id": 36994, "name": "FENGYUN 1C DEB", "group": "fengyun-1c-debris", "lat": -7.19006104603176, "lon": -59.21234007696863, "alt_km": 858.1323826950029, "timestamp": "2025-12-02T17:49:12.316608+00:00", "meta": {"OBJECT_NAME": "FENGYUN 1C DEB", "OBJECT_ID": "1999-025ECA", "EPOCH": "2025-12-02T04:02:29.947488", "MEAN_MOTION": 13.90778611, "ECCENTRICITY": 0.01150307, "INCLINATION": 98.6418, "RA_OF_ASC_NODE": 299.1542, "ARG_OF_PERICENTER": 322.4253, "MEAN_ANOMALY": 36.8909, "EPHEMERIS_TYPE": 0, "CLASSIFICATION_TYPE": "U", "NORAD_CAT_ID": 36994, "ELEMENT_SET_NO": 999, "REV_AT_EPOCH": 80760, "BSTAR": 0.00021509724, "MEAN_MOTION_DOT": 2.43e-06, "MEAN_MOTION_DDOT": 0}, "tle": {"line1": "1 36994U 99025ECA 25336.16840217  .00000243  00000+0  21510-3 0  9994", "line2": "2 36994  98.6418 299.1542 0115030 322.4253  36.8909 13.90778611807601"}}, "geometry": {"type": "Point", "coordinates": [-59.21234007696863, -7.19006104603176]}}, {"type": "Feature", "properties": {"norad_id": 36995, "name": "FENGYUN 1C DEB", "group": "fengyun-1c-debris", "lat": 67.49572338438853, "lon": 56.99446596404168, "alt_km": 888.9855714241321, "timestamp": "2025-12-02T17:49:12.316619+00:00", "meta": {"OBJECT_NAME": "FENGYUN 1C DEB", "OBJECT_ID": "1999-025ECB", "EPOCH": "2025-11-29T22:37:55.370208", "MEAN_MOTION": 14.04864642, "ECCENTRICITY": 0.00391893, "INCLINATION": 98.3442, "RA_OF_ASC_NODE": 213.6723, "ARG_OF_PERICENTER": 347.903, "MEAN_ANOMALY": 12.1195, "EPHEMERIS_TYPE": 0, "CLASSIFICATION_TYPE": "U", "NORAD_CAT_ID": 36995, "ELEMENT_SET_NO": 999, "REV_AT_EPOCH": 63377, "BSTAR": 0.00012319947, "MEAN_MOTION_DOT": 1.6e-06, "MEAN_MOTION_DDOT": 0}, "tle": {"line1": "1 36995U 99025ECB 25333.94300197  .00000160  00000+0  12320-3 0  9993", "line2": "2 36995  98.3442 213.6723 0039189 347.9030  12.1195 14.04864642633778"}}, "geometry": {"type": "Point", "coordinates": [56.99446596404168, 67.49572338438853]}}, {"type": "Feature", "properties": {"norad_id": 36996, "name": "FENGYUN 1C DEB", "group": "fengyun-1c-debris", "lat": -20.959372114302678, "lon": 132.9706781112283, "alt_km": 714.3380841144435, "timestamp": "2025-12-02T17:49:12.316629+00:00", "meta": {"OBJECT_NAME": "FENGYUN 1C DEB", "OBJECT_ID": "1999-025ECC", "EPOCH": "2025-11-27T05:46:51.154176", "MEAN_MOTION": 14.11461211, "ECCENTRICITY": 0.02552856, "INCLINATION": 98.2247, "RA_OF_ASC_NODE": 124.7451, "ARG_OF_PERICENTER": 33.8599, "MEAN_ANOMALY": 87.2847, "EPHEMERIS_TYPE": 0, "CLASSIFICATION_TYPE": "U", "NORAD_CAT_ID": 36996, "ELEMENT_SET_NO": 999, "REV_AT_EPOCH": 59473, "BSTAR": 0.00085126792, "MEAN_MOTION_DOT": 2.056e-05, "MEAN_MOTION_DDOT": 0}, "tle": {"line1": "1 36996U 99025ECC 25331.24086984  .00002056  00000+0  85127-3 0  9991", "line2": "2 36996  98.2247 124.7451 0255285  33.8599  87.2847 14.11461211594731"}}, "geometry": {"type": "Point", "coordinates": [132.9706781112283, -20.959372114302678]}}, {"type": "Feature", "properties": {"norad_id": 37003, "name": "FENGYUN 1C DEB", "group": "fengyun-1c-debris", "lat": -41.771711351790636, "lon": 172.7571090532538, "alt_km": 854.2286698578382, "timestamp": "2025-12-02T17:49:12.316638+00:00", "meta": {"OBJECT_NAME": "FENGYUN 1C DEB", "OBJECT_ID": "1999-025ECK", "EPOCH": "2025-11-29T08:00:12.278880", "MEAN_MOTION": 13.96183433, "ECCENTRICITY": 0.00964489, "INCLINATION": 98.8482, "RA_OF_ASC_NODE": 357.4784, "ARG_OF_PERICENTER": 198.9753, "MEAN_ANOMALY": 177.4394, "EPHEMERIS_TYPE": 0, "CLASSIFICATION_TYPE": "U", "NORAD_CAT_ID": 37003, "ELEMENT_SET_NO": 999, "REV_AT_EPOCH": 60470, "BSTAR": 0.00050828845, "MEAN_MOTION_DOT": 6.84e-06, "MEAN_MOTION_DDOT": 0}, "tle": {"line1": "1 37003U 99025ECK 25333.33347545  .00000684  00000+0  50829-3 0  9992", "line2": "2 37003  98.8482 357.4784 0096448 198.9753 177.4394 13.96183433604708"}}, "geometry": {"type": "Point", "coordinates": [172.7571090532538, -41.771711351790636]}}, {"type": "Feature", "properties": {"norad_id": 37006, "name": "FENGYUN 1C DEB", "group": "fengyun-1c-debris", "lat": 80.52447079558985, "lon": 123.26826459324612, "alt_km": 903.2662591859507, "timestamp": "2025-12-02T17:49:12.316648+00:00", "meta": {"OBJECT_NAME": "FENGYUN 1C DEB", "OBJECT_ID": "1999-025ECN", "EPOCH": "2025-11-30T22:17:22.604640", "MEAN_MOTION": 14.48720025, "ECCENTRICITY": 0.02561349, "INCLINATION": 99.2981, "RA_OF_ASC_NODE": 222.2839, "ARG_OF_PERICENTER": 283.324, "MEAN_ANOMALY": 73.9509, "EPHEMERIS_TYPE": 0, "CLASSIFICATION_TYPE": "U", "NORAD_CAT_ID": 37006, "ELEMENT_SET_NO": 999, "REV_AT_EPOCH": 64943, "BSTAR": 0.00098281369, "MEAN_MOTION_DOT": 5.562e-05, "MEAN_MOTION_DDOT": 0}, "tle": {"line1": "1 37006U 99025ECN 25334.92873385  .00005562  00000+0  98281-3 0  9991", "line2": "2 37006  99.2981 222.2839 0256134 283.3240  73.9509 14.48720025649439"}}, "geometry": {"type": "Point", "coordinates": [123.26826459324612, 80.52447079558985]}}, {"type": "Feature", "properties": {"norad_id": 37008, "name": "FENGYUN 1C DEB", "group": "fengyun-1c-debris", "lat": 15.65848972377059, "lon": -81.93925607815619, "alt_km": 887.5509546996554, "timestamp": "2025-12-02T17:49:12.316658+00:00", "meta": {"OBJECT_NAME": "FENGYUN 1C DEB", "OBJECT_ID": "1999-025ECQ", "EPOCH": "2025-12-02T06:48:12.177792", "MEAN_MOTION": 14.07858743, "ECCENTRICITY": 0.0061234, "INCLINATION": 99.135, "RA_OF_ASC_NODE": 95.0115, "ARG_OF_PERICENTER": 282.7077, "MEAN_ANOMALY": 76.7251, "EPHEMERIS_TYPE": 0, "CLASSIFICATION_TYPE": "U", "NORAD_CAT_ID": 37008, "ELEMENT_SET_NO": 999, "REV_AT_EPOCH": 60167, "BSTAR": 0.0014906, "MEAN_MOTION_DOT": 2.526e-05, "MEAN_MOTION_DDOT": 0}, "tle": {"line1": "1 37008U 99025ECQ 25336.28347428  .00002526  00000+0  14906-2 0  9996", "line2": "2 37008  99.1350  95.0115 0061234 282.7077  76.7251 14.07858743601672"}}, "geometry": {"type": "Point", "coordinates": [-81.93925607815619, 15.65848972377059]}}, {"type": "Feature", "properties": {"norad_id": 37017, "name": "FENGYUN 1C DEB", "group": "fengyun-1c-debris", "lat": 35.70789227173644, "lon": -85.41548462271503, "alt_km": 552.187725996283, "timestamp": "2025-12-02T17:49:12.316669+00:00", "meta": {"OBJECT_NAME": "FENGYUN 1C DEB", "OBJECT_ID": "1999-025ECZ", "EPOCH": "2025-12-02T02:39:25.684416", "MEAN_MOTION": 14.40374122, "ECCENTRICITY": 0.02839314, "INCLINATION": 98.7881, "RA_OF_ASC_NODE": 280.3191, "ARG_OF_PERICENTER": 36.7665, "MEAN_ANOMALY": 325.2632, "EPHEMERIS_TYPE": 0, "CLASSIFICATION_TYPE": "U", "NORAD_CAT_ID": 37017, "ELEMENT_SET_NO": 999, "REV_AT_EPOCH": 61008, "BSTAR": 0.0019565669, "MEAN_MOTION_DOT": 9.982e-05, "MEAN_MOTION_DDOT": 0}, "tle": {"line1": "1 37017U 99025ECZ 25336.11071394  .00009982  00000+0  19566-2 0  9994", "line2": "2 37017  98.7881 280.3191 0283931  36.7665 325.2632 14.40374122610080"}}, "geometry": {"type": "Point", "coordinates": [-85.41548462271503, 35.70789227173644]}}]}